{
    "links": {
        "self": "http://www.neowsapp.com/rest/v1/neo/3174211?api_key=iIulBulltgU6a56xZRHN4H3l9WmuAYTsLGpBGhQ2"
    },
    "id": "3174211",
    "neo_reference_id": "3174211",
    "name": "(2004 CC)",
    "designation": "2004 CC",
    "nasa_jpl_url": "http://ssd.jpl.nasa.gov/sbdb.cgi?sstr=3174211",
    "absolute_magnitude_h": 23.6,
    "estimated_diameter": {
        "kilometers": {
            "estimated_diameter_min": 0.0506471459,
            "estimated_diameter_max": 0.1132504611
        },
        "meters": {
            "estimated_diameter_min": 50.6471458835,
            "estimated_diameter_max": 113.2504610618
        },
        "miles": {
            "estimated_diameter_min": 0.0314706677,
            "estimated_diameter_max": 0.0703705522
        },
        "feet": {
            "estimated_diameter_min": 166.1651821003,
            "estimated_diameter_max": 371.5566426699
        }
    },
    "is_potentially_hazardous_asteroid": false,
    "close_approach_data": [
        {
            "close_approach_date": "2004-02-09",
            "close_approach_date_full": "2004-Feb-09 23:08",
            "epoch_date_close_approach": 1076368080000,
            "relative_velocity": {
                "kilometers_per_second": "6.9208377644",
                "kilometers_per_hour": "24915.0159518782",
                "miles_per_hour": "15481.2219952101"
            },
            "miss_distance": {
                "astronomical": "0.0355808203",
                "lunar": "13.8409390967",
                "kilometers": "5322814.929732761",
                "miles": "3307443.8291276618"
            },
            "orbiting_body": "Earth"
        },
        {
            "close_approach_date": "2108-04-13",
            "close_approach_date_full": "2108-Apr-13 21:23",
            "epoch_date_close_approach": 4363795380000,
            "relative_velocity": {
                "kilometers_per_second": "9.0062624455",
                "kilometers_per_hour": "32422.5448036707",
                "miles_per_hour": "20146.1084642586"
            },
            "miss_distance": {
                "astronomical": "0.1813523756",
                "lunar": "70.5460741084",
                "kilometers": "27129929.109199972",
                "miles": "16857756.2439127336"
            },
            "orbiting_body": "Earth"
        }
    ],
    "orbital_data": {
        "orbit_id": "7",
        "orbit_determination_date": "2017-04-06 09:13:13",
        "first_observation_date": "2004-02-02",
        "last_observation_date": "2004-02-07",
        "data_arc_in_days": 5,
        "observations_used": 21,
        "orbit_uncertainty": "8",
        "minimum_orbit_intersection": ".0120427",
        "jupiter_tisserand_invariant": "4.627",
        "epoch_osculation": "2453040.5",
        "eccentricity": ".3087983789708126",
        "semi_major_axis": "1.4300384763972",
        "inclination": "7.597600795267136",
        "ascending_node_longitude": "324.3147664147045",
        "orbital_period": "624.6259326271731",
        "perihelion_distance": ".9884449130198543",
        "perihelion_argument": "199.1828716625613",
        "aphelion_distance": "1.871632039774547",
        "perihelion_time": "2453064.215682386153",
        "mean_anomaly": "346.3315862934064",
        "mean_motion": ".5763449469442328",
        "equinox": "J2000",
        "orbit_class": {
            "orbit_class_type": "APO",
            "orbit_class_description": "Near-Earth asteroid orbits which cross the Earth’s orbit similar to that of 1862 Apollo",
            "orbit_class_range": "a (semi-major axis) > 1.0 AU; q (perihelion) < 1.017 AU"
        }
    },
    "is_sentry_object": false
}